ACS3                    
1 59588U 24077B   24262.73078217  .00022399  00000+0  25702-1 0  9997
2 59588  97.4239 309.1901 0043927 214.1525 145.6800 13.69046293 20198
